CCSDS_OMM_VERS = 2.0
CREATION_DATE  = 
ORIGINATOR     = 

OBJECT_NAME    = COSMOS 1933
OBJECT_ID      = 1988-020A
CENTER_NAME    = EARTH
REF_FRAME      = TEME
TIME_SYSTEM    = UTC
MEAN_ELEMENT_THEORY = SGP/SGP4

EPOCH          = 2026-01-16T05:51:54.368064
MEAN_MOTION    = 15.17458876
ECCENTRICITY   = .00055317
INCLINATION    = 82.5154
RA_OF_ASC_NODE = 302.7816
ARG_OF_PERICENTER = 40.2906
MEAN_ANOMALY   = 319.8737

EPHEMERIS_TYPE = 0
CLASSIFICATION_TYPE = U
NORAD_CAT_ID   = 18958
ELEMENT_SET_NO = 999
REV_AT_EPOCH   = 4227
BSTAR          = .14203605E-3
MEAN_MOTION_DOT = .2874E-4
MEAN_MOTION_DDOT = 0

CCSDS_OMM_VERS = 2.0
CREATION_DATE  = 
ORIGINATOR     = 

OBJECT_NAME    = SL-3 R/B
OBJECT_ID      = 1988-032B
CENTER_NAME    = EARTH
REF_FRAME      = TEME
TIME_SYSTEM    = UTC
MEAN_ELEMENT_THEORY = SGP/SGP4

EPOCH          = 2026-01-16T05:59:12.591456
MEAN_MOTION    = 15.19147956
ECCENTRICITY   = .00281794
INCLINATION    = 97.5110
RA_OF_ASC_NODE = 359.7472
ARG_OF_PERICENTER = 58.9677
MEAN_ANOMALY   = 301.4318

EPHEMERIS_TYPE = 0
CLASSIFICATION_TYPE = U
NORAD_CAT_ID   = 19046
ELEMENT_SET_NO = 999
REV_AT_EPOCH   = 4414
BSTAR          = .18359962E-3
MEAN_MOTION_DOT = .3827E-4
MEAN_MOTION_DDOT = 0

CCSDS_OMM_VERS = 2.0
CREATION_DATE  = 
ORIGINATOR     = 

OBJECT_NAME    = SL-16 R/B
OBJECT_ID      = 1988-039B
CENTER_NAME    = EARTH
REF_FRAME      = TEME
TIME_SYSTEM    = UTC
MEAN_ELEMENT_THEORY = SGP/SGP4

EPOCH          = 2026-01-16T04:53:13.448832
MEAN_MOTION    = 14.19605875
ECCENTRICITY   = .00198532
INCLINATION    = 71.0136
RA_OF_ASC_NODE = 179.5278
ARG_OF_PERICENTER = 57.2001
MEAN_ANOMALY   = 303.1033

EPHEMERIS_TYPE = 0
CLASSIFICATION_TYPE = U
NORAD_CAT_ID   = 19120
ELEMENT_SET_NO = 999
REV_AT_EPOCH   = 95093
BSTAR          = .12322671E-3
MEAN_MOTION_DOT = .213E-5
MEAN_MOTION_DDOT = 0

CCSDS_OMM_VERS = 2.0
CREATION_DATE  = 
ORIGINATOR     = 

OBJECT_NAME    = COSMOS 1953
OBJECT_ID      = 1988-050A
CENTER_NAME    = EARTH
REF_FRAME      = TEME
TIME_SYSTEM    = UTC
MEAN_ELEMENT_THEORY = SGP/SGP4

EPOCH          = 2026-01-15T23:20:59.191584
MEAN_MOTION    = 15.27385391
ECCENTRICITY   = .00107624
INCLINATION    = 82.5063
RA_OF_ASC_NODE = 211.2184
ARG_OF_PERICENTER = 315.1616
MEAN_ANOMALY   = 44.8752

EPHEMERIS_TYPE = 0
CLASSIFICATION_TYPE = U
NORAD_CAT_ID   = 19210
ELEMENT_SET_NO = 999
REV_AT_EPOCH   = 2973
BSTAR          = .14679248E-3
MEAN_MOTION_DOT = .3973E-4
MEAN_MOTION_DDOT = 0

CCSDS_OMM_VERS = 2.0
CREATION_DATE  = 
ORIGINATOR     = 

OBJECT_NAME    = SL-8 R/B
OBJECT_ID      = 1988-053B
CENTER_NAME    = EARTH
REF_FRAME      = TEME
TIME_SYSTEM    = UTC
MEAN_ELEMENT_THEORY = SGP/SGP4

EPOCH          = 2026-01-16T06:08:22.116192
MEAN_MOTION    = 14.38880311
ECCENTRICITY   = .001941
INCLINATION    = 74.0453
RA_OF_ASC_NODE = 209.1050
ARG_OF_PERICENTER = 40.5620
MEAN_ANOMALY   = 132.6344

EPHEMERIS_TYPE = 0
CLASSIFICATION_TYPE = U
NORAD_CAT_ID   = 19257
ELEMENT_SET_NO = 999
REV_AT_EPOCH   = 96905
BSTAR          = .36298933E-4
MEAN_MOTION_DOT = .86E-6
MEAN_MOTION_DDOT = 0

CCSDS_OMM_VERS = 2.0
CREATION_DATE  = 
ORIGINATOR     = 

OBJECT_NAME    = COSMOS 1975
OBJECT_ID      = 1988-093A
CENTER_NAME    = EARTH
REF_FRAME      = TEME
TIME_SYSTEM    = UTC
MEAN_ELEMENT_THEORY = SGP/SGP4

EPOCH          = 2026-01-16T06:07:36.413184
MEAN_MOTION    = 15.27022221
ECCENTRICITY   = .00115626
INCLINATION    = 82.5201
RA_OF_ASC_NODE = 170.2606
ARG_OF_PERICENTER = 1.0849
MEAN_ANOMALY   = 359.0413

EPHEMERIS_TYPE = 0
CLASSIFICATION_TYPE = U
NORAD_CAT_ID   = 19573
ELEMENT_SET_NO = 999
REV_AT_EPOCH   = 1140
BSTAR          = .18985546E-3
MEAN_MOTION_DOT = .5075E-4
MEAN_MOTION_DDOT = 0

CCSDS_OMM_VERS = 2.0
CREATION_DATE  = 
ORIGINATOR     = 

OBJECT_NAME    = SL-14 R/B
OBJECT_ID      = 1988-093B
CENTER_NAME    = EARTH
REF_FRAME      = TEME
TIME_SYSTEM    = UTC
MEAN_ELEMENT_THEORY = SGP/SGP4

EPOCH          = 2026-01-16T06:15:27.159264
MEAN_MOTION    = 14.85592440
ECCENTRICITY   = .00200105
INCLINATION    = 82.5308
RA_OF_ASC_NODE = 91.2719
ARG_OF_PERICENTER = 207.8777
MEAN_ANOMALY   = 210.1389

EPHEMERIS_TYPE = 0
CLASSIFICATION_TYPE = U
NORAD_CAT_ID   = 19574
ELEMENT_SET_NO = 999
REV_AT_EPOCH   = 99325
BSTAR          = .3704856E-4
MEAN_MOTION_DOT = .346E-5
MEAN_MOTION_DDOT = 0

CCSDS_OMM_VERS = 2.0
CREATION_DATE  = 
ORIGINATOR     = 

OBJECT_NAME    = SL-16 R/B
OBJECT_ID      = 1988-102B
CENTER_NAME    = EARTH
REF_FRAME      = TEME
TIME_SYSTEM    = UTC
MEAN_ELEMENT_THEORY = SGP/SGP4

EPOCH          = 2026-01-16T03:22:19.801344
MEAN_MOTION    = 14.16144461
ECCENTRICITY   = .00119914
INCLINATION    = 70.9988
RA_OF_ASC_NODE = 262.0629
ARG_OF_PERICENTER = 91.2583
MEAN_ANOMALY   = 268.9914

EPHEMERIS_TYPE = 0
CLASSIFICATION_TYPE = U
NORAD_CAT_ID   = 19650
ELEMENT_SET_NO = 999
REV_AT_EPOCH   = 91945
BSTAR          = .17105909E-3
MEAN_MOTION_DOT = .291E-5
MEAN_MOTION_DDOT = 0

CCSDS_OMM_VERS = 2.0
CREATION_DATE  = 
ORIGINATOR     = 

OBJECT_NAME    = INTERCOSMOS 24
OBJECT_ID      = 1989-080A
CENTER_NAME    = EARTH
REF_FRAME      = TEME
TIME_SYSTEM    = UTC
MEAN_ELEMENT_THEORY = SGP/SGP4

EPOCH          = 2026-01-15T19:46:17.108832
MEAN_MOTION    = 12.59487211
ECCENTRICITY   = .11889747
INCLINATION    = 82.6079
RA_OF_ASC_NODE = 138.7973
ARG_OF_PERICENTER = 55.4962
MEAN_ANOMALY   = 315.2705

EPHEMERIS_TYPE = 0
CLASSIFICATION_TYPE = U
NORAD_CAT_ID   = 20261
ELEMENT_SET_NO = 999
REV_AT_EPOCH   = 66014
BSTAR          = .68460125E-4
MEAN_MOTION_DOT = .262E-5
MEAN_MOTION_DDOT = 0

CCSDS_OMM_VERS = 2.0
CREATION_DATE  = 
ORIGINATOR     = 

OBJECT_NAME    = SL-14 R/B
OBJECT_ID      = 1989-080C
CENTER_NAME    = EARTH
REF_FRAME      = TEME
TIME_SYSTEM    = UTC
MEAN_ELEMENT_THEORY = SGP/SGP4

EPOCH          = 2026-01-16T05:26:06.136224
MEAN_MOTION    = 12.50438981
ECCENTRICITY   = .12297218
INCLINATION    = 82.5914
RA_OF_ASC_NODE = 206.8744
ARG_OF_PERICENTER = 304.7570
MEAN_ANOMALY   = 44.3638

EPHEMERIS_TYPE = 0
CLASSIFICATION_TYPE = U
NORAD_CAT_ID   = 20262
ELEMENT_SET_NO = 999
REV_AT_EPOCH   = 65359
BSTAR          = .60308911E-4
MEAN_MOTION_DOT = .201E-5
MEAN_MOTION_DDOT = 0

CCSDS_OMM_VERS = 2.0
CREATION_DATE  = 
ORIGINATOR     = 

OBJECT_NAME    = DELTA 1 R/B
OBJECT_ID      = 1989-089B
CENTER_NAME    = EARTH
REF_FRAME      = TEME
TIME_SYSTEM    = UTC
MEAN_ELEMENT_THEORY = SGP/SGP4

EPOCH          = 2026-01-16T04:45:17.517024
MEAN_MOTION    = 14.50606661
ECCENTRICITY   = .00676465
INCLINATION    = 97.0734
RA_OF_ASC_NODE = 231.9723
ARG_OF_PERICENTER = 289.0590
MEAN_ANOMALY   = 70.3290

EPHEMERIS_TYPE = 0
CLASSIFICATION_TYPE = U
NORAD_CAT_ID   = 20323
ELEMENT_SET_NO = 999
REV_AT_EPOCH   = 88812
BSTAR          = .82967975E-4
MEAN_MOTION_DOT = .299E-5
MEAN_MOTION_DDOT = 0

CCSDS_OMM_VERS = 2.0
CREATION_DATE  = 
ORIGINATOR     = 

OBJECT_NAME    = ARIANE 40 R/B
OBJECT_ID      = 1990-005H
CENTER_NAME    = EARTH
REF_FRAME      = TEME
TIME_SYSTEM    = UTC
MEAN_ELEMENT_THEORY = SGP/SGP4

EPOCH          = 2026-01-16T03:19:38.000064
MEAN_MOTION    = 14.39826488
ECCENTRICITY   = .00101222
INCLINATION    = 98.3191
RA_OF_ASC_NODE = 78.3365
ARG_OF_PERICENTER = 9.7998
MEAN_ANOMALY   = 350.3386

EPHEMERIS_TYPE = 0
CLASSIFICATION_TYPE = U
NORAD_CAT_ID   = 20443
ELEMENT_SET_NO = 999
REV_AT_EPOCH   = 88524
BSTAR          = .67520662E-4
MEAN_MOTION_DOT = .17E-5
MEAN_MOTION_DDOT = 0

