COSMOS 1933             
1 18958U 88020A   26016.24437926  .00002874  00000+0  14204-3 0  9995
2 18958  82.5154 302.7816 0005531  40.2906 319.8737 15.17458876 42275
SL-3 R/B                
1 19046U 88032B   26016.24945129  .00003827  00000+0  18360-3 0  9992
2 19046  97.5110 359.7472 0028179  58.9677 301.4318 15.19147956 44142
SL-16 R/B               
1 19120U 88039B   26016.20362788  .00000213  00000+0  12323-3 0  9991
2 19120  71.0136 179.5278 0019853  57.2001 303.1033 14.19605875950938
COSMOS 1953             
1 19210U 88050A   26015.97290731  .00003973  00000+0  14679-3 0  9997
2 19210  82.5063 211.2184 0010762 315.1616  44.8752 15.27385391 29732
SL-8 R/B                
1 19257U 88053B   26016.25581153  .00000086  00000+0  36299-4 0  9999
2 19257  74.0453 209.1050 0019410  40.5620 132.6344 14.38880311969057
COSMOS 1975             
1 19573U 88093A   26016.25528256  .00005075  00000+0  18986-3 0  9994
2 19573  82.5201 170.2606 0011562   1.0849 359.0413 15.27022221 11409
SL-14 R/B               
1 19574U 88093B   26016.26073101  .00000346  00000+0  37049-4 0  9998
2 19574  82.5308  91.2719 0020010 207.8777 210.1389 14.85592440993258
SL-16 R/B               
1 19650U 88102B   26016.14050696  .00000291  00000+0  17106-3 0  9995
2 19650  70.9988 262.0629 0011991  91.2583 268.9914 14.16144461919459
INTERCOSMOS 24          
1 20261U 89080A   26015.82380913  .00000262  00000+0  68460-4 0  9991
2 20261  82.6079 138.7973 1188974  55.4962 315.2705 12.59487211660142
SL-14 R/B               
1 20262U 89080C   26016.22645991  .00000201  00000+0  60309-4 0  9994
2 20262  82.5914 206.8744 1229721 304.7570  44.3638 12.50438981653591
DELTA 1 R/B             
1 20323U 89089B   26016.19811941  .00000299  00000+0  82968-4 0  9999
2 20323  97.0734 231.9723 0067646 289.0590  70.3290 14.50606661888124
ARIANE 40 R/B           
1 20443U 90005H   26016.13863426  .00000170  00000+0  67521-4 0  9997
2 20443  98.3191  78.3365 0010122   9.7998 350.3386 14.39826488885244
